# 2022 11 27 12 45 44.20   2.5500  125.6400 143.00  3.53 0.00 0.00 0.290     1
 PSSI       20.60     1.0   P
 PSSI       36.80     1.0   S
 TMSI       28.70     1.0   P
 TMSI       51.40     1.0   S
 MGAI       33.00     1.0   P
 MGAI       58.20     1.0   S
TBMCM       36.60     1.0   P
TBMCM       65.40     1.0   S
 IHMI       36.70     1.0   P
 IHMI       66.20     1.0   S
 JHMI       39.70     1.0   P
 JHMI       70.90     1.0   S
 MTAI       43.20     1.0   P
 PBCI       43.30     1.0   P
 PMMI       44.80     1.0   P
 WHMI       46.10     1.0   P
 LBMI       55.60     1.0   P
