# 2022 12 09 06 21 33.80   2.5800  127.9900  10.00  3.84 0.00 0.00 1.110    52
 PSSI       41.90     1.0   P
 PSSI       74.30     1.0   S
 TMSI       52.60     1.0   P
 TMSI       92.00     1.0   S
 KMSI       66.40     1.0   P
 KMSI      122.90     1.0   S
 PBCI       69.40     1.0   P
 PBCI      120.40     1.0   S
# 2022 12 09 06 14 29.10   0.3900  125.0600  14.00  3.87 0.00 0.00 1.370    53
TBMCM       12.20     1.0   P
 TMSI       17.20     1.0   P
 TMSI       29.30     1.0   S
 PBCI       18.40     1.0   P
 PBCI       31.10     1.0   S
  MNI       19.80     1.0   P
 KMSI       20.50     1.0   P
 KMSI       34.70     1.0   S
 BGCI       38.40     1.0   P
 BGCI       61.70     1.0   S
 KGCM       39.50     1.0   P
 KGCM       65.10     1.0   S
 TNTI       38.00     1.0   P
 TNTI       67.40     1.0   S
 PSSI       38.00     1.0   P
 PSSI       68.20     1.0   S
 PMMI       36.70     1.0   P
 PMMI       68.30     1.0   S
 JHMI       40.60     1.0   P
 JHMI       71.70     1.0   S
 SANI       40.70     1.0   P
 SANI       72.60     1.0   S
 LBMI       74.20     1.0   S
 LUWI       40.90     1.0   P
 LUWI       75.90     1.0   S
 IHMI       43.70     1.0   P
 IHMI       75.90     1.0   S
 SMSI       43.10     1.0   P
 SMSI       78.20     1.0   S
 WBMI       47.80     1.0   P
 WBMI       78.20     1.0   S
 OBMI       50.70     1.0   P
 OBMI       85.80     1.0   S
 MRSI       50.40     1.0   P
 MRSI       86.20     1.0   S
 APSI       58.50     1.0   P
 APSI       99.20     1.0   S
# 2022 12 09 05 07 50.90   1.0300  124.2100  10.00  2.49 0.00 0.00 1.040    54
TBMCM        9.30     1.0   P
TBMCM       19.20     1.0   S
 KMSI        9.40     1.0   P
 KMSI       17.50     1.0   S
 PBCI       13.50     1.0   P
 PBCI       23.30     1.0   S
 TMSI       14.30     1.0   P
 TGCM       24.60     1.0   P
# 2022 12 08 16 41 22.40  -0.2200  125.3600  10.00  3.37 0.00 0.00 1.050    55
TBMCM       21.20     1.0   P
 PBCI       23.80     1.0   P
 TMSI       28.50     1.0   P
 TMSI       48.30     1.0   S
 KMSI       26.10     1.0   P
  MNI       30.50     1.0   P
 SANI       31.50     1.0   P
 BGCI       35.90     1.0   P
 PMMI       36.00     1.0   P
 LBMI       35.60     1.0   P
 TNTI       38.20     1.0   P
 TGCM       38.50     1.0   P
 OBMI       41.30     1.0   P
 KGCM       43.50     1.0   P
 LUWI       44.50     1.0   P
 SMSI       51.10     1.0   P
 MRSI       54.90     1.0   P
 APSI       60.10     1.0   P
# 2022 12 08 07 35 11.90   2.3600  126.1500  32.00  4.12 0.00 0.00 0.520    56
 PSSI       15.70     1.0   P
 PSSI       27.10     1.0   S
  MNI       26.20     1.0   P
  MNI       45.70     0.0   S
 TMSI       26.60     1.0   P
 TMSI       46.40     1.0   S
 IHMI       25.50     1.0   P
 MGAI       28.10     1.0   P
 MGAI       49.10     1.0   S
 JHMI       51.60     1.0   S
 TNTI       31.40     1.0   P
 TNTI       53.20     0.0   S
 MTAI       33.80     1.0   P
TBMCM       35.30     1.0   P
TBMCM       62.50     1.0   S
 PMMI       37.00     1.0   P
 WHMI       36.60     1.0   P
 PBCI       44.50     1.0   P
 KGCM       96.70     0.0   S
 SANI       63.80     1.0   P
 MRSI       68.40     1.0   P
 LUWI       70.00     1.0   P
TOLI2       79.00     1.0   P
# 2022 12 08 06 17 50.20   0.9900  128.8800   1.00  3.92 0.00 0.00 0.550    57
 WHMI       14.90     1.0   P
 WHMI       24.30     1.0   S
 WBMI       22.50     1.0   P
 WBMI       38.10     1.0   S
 MTAI       24.30     1.0   P
 JHMI       26.10     1.0   P
 IHMI       26.30     1.0   P
 TNTI       28.60     1.0   P
 PMMI       29.20     1.0   P
 PMMI       49.90     1.0   S
 LBMI       37.40     1.0   P
 LBMI       63.20     1.0   S
 OBMI       73.30     0.0   S
 PSSI       60.00     1.0   P
 TMSI       61.70     1.0   P
 TSPI       62.90     1.0   P
 KMSI       74.50     1.0   P
# 2022 12 08 01 29 11.50  -0.1100  126.7000  24.00  3.40 0.00 0.00 0.370    58
 PMMI       16.30     1.0   P
 PMMI       28.20     1.0   S
 LBMI       18.50     1.0   P
 LBMI       30.80     0.0   S
 TNTI       32.60     0.0   S
 WBMI       21.90     1.0   P
 WBMI       37.40     0.0   S
 JHMI       24.40     1.0   P
 JHMI       42.10     0.0   S
 IHMI       29.80     1.0   P
 IHMI       39.50     0.0   S
 WHMI       53.10     0.0   S
 SANI       32.40     1.0   P
TBMCM       35.10     0.0   P
 PBCI       41.10     0.0   P
 MTAI       42.90     1.0   P
 TGCM       55.80     1.0   P
# 2022 12 07 20 54 56.80   1.7400  127.1900 106.00  4.78 0.00 0.00 0.630    59
 IHMI       16.30     1.0   P
 IHMI       30.80     1.0   S
 JHMI       18.70     1.0   P
 JHMI       34.00     1.0   S
 TNTI       21.10     1.0   P
 TNTI       36.90     1.0   S
 WHMI       22.90     1.0   P
 MTAI       22.90     1.0   P
 MTAI       40.20     1.0   S
 PMMI       25.90     1.0   P
 WBMI       28.00     1.0   P
 WBMI       48.60     1.0   S
 PSSI       33.70     1.0   P
 PSSI       59.20     1.0   S
 TMSI       37.50     1.0   P
 TMSI       65.90     1.0   S
 MGAI       36.80     1.0   P
  MNI       38.30     1.0   P
  MNI       67.00     1.0   S
 LBMI       38.50     1.0   P
TBMCM       42.70     1.0   P
TBMCM       76.00     1.0   S
 OBMI       46.30     1.0   P
 KMSI       52.20     1.0   P
 KMSI       92.50     1.0   S
 PBCI       51.80     1.0   P
 PBCI       91.20     1.0   S
 SANI       56.80     1.0   P
 TAMI       79.30     1.0   P
# 2022 12 07 18 03 10.20   2.5400  126.8900  16.00  3.09 0.00 0.00 0.660    60
 IHMI       20.50     1.0   P
 IHMI       38.10     1.0   S
 MTAI       25.20     1.0   P
 MTAI       44.70     1.0   S
 MGAI       25.50     1.0   P
 MGAI       45.10     1.0   S
 PSSI       26.50     1.0   P
 PSSI       45.70     1.0   S
 JHMI       27.00     1.0   P
 JHMI       47.50     1.0   S
 TNTI       31.20     1.0   P
 TNTI       53.90     1.0   S
 WHMI       33.00     1.0   P
 WHMI       56.60     1.0   S
 TMSI       37.30     1.0   P
 TMSI       66.10     1.0   S
TBMCM       47.50     1.0   P
TBMCM       81.30     1.0   S
 PBCI       54.70     1.0   P
# 2022 12 07 15 18 42.00   1.2300  126.2800  24.00  2.88 0.00 0.00 0.320    61
 TNTI       21.20     1.0   P
 TNTI       37.10     1.0   S
 JHMI       21.00     1.0   P
 JHMI       37.70     1.0   S
 IHMI       22.50     1.0   P
 IHMI       40.40     1.0   S
 TMSI       22.90     1.0   P
 TMSI       40.80     1.0   S
 PMMI       24.40     1.0   P
 PMMI       43.00     1.0   S
  MNI       25.60     1.0   P
  MNI       44.10     1.0   S
 PSSI       28.60     1.0   P
 PSSI       50.50     1.0   S
TBMCM       29.10     1.0   P
TBMCM       51.60     1.0   S
 WBMI       29.70     1.0   P
 WBMI       52.80     1.0   S
 WHMI       30.60     1.0   P
 WHMI       53.70     1.0   S
 PBCI       37.90     1.0   P
# 2022 12 07 12 30 32.10   0.7600  125.6000   9.00  4.51 0.00 0.00 1.750    62
 TMSI       16.10     1.0   P
TBMCM       17.70     1.0   P
  MNI       19.40     1.0   P
  MNI       33.10     1.0   S
 PBCI       26.80     1.0   P
 PBCI       45.20     1.0   S
 KMSI       28.10     1.0   P
 KMSI       48.30     1.0   S
 TNTI       30.80     1.0   P
 TNTI       55.10     1.0   S
 PMMI       32.40     1.0   P
 PMMI       57.20     1.0   S
 JHMI       33.40     1.0   P
 JHMI       59.00     1.0   S
 PSSI       33.20     1.0   P
 PSSI       57.40     1.0   S
 IHMI       34.60     1.0   P
 IHMI       61.30     1.0   S
 WBMI       38.30     1.0   P
 WBMI       67.90     1.0   S
 LBMI       38.30     1.0   P
 LBMI       65.80     1.0   S
 TGCM       42.50     1.0   P
 TGCM       71.60     1.0   S
 WHMI       43.20     1.0   P
 BGCI       46.50     1.0   P
 SANI       42.80     1.0   P
 MTAI       49.30     1.0   P
 MTAI       84.10     1.0   S
 SMSI       55.30     1.0   P
 SMSI       95.60     1.0   S
 LUWI       53.40     1.0   P
 MGAI       51.80     1.0   P
 MRSI       58.20     1.0   P
 APSI       67.30     1.0   P
 TPCI       70.90     1.0   P
 TPCI      121.60     1.0   S
TOLI2       73.70     1.0   P
 KRAI       74.20     1.0   P
 TAMI       75.60     1.0   P
 MSAI       79.30     1.0   P
 MPSI       86.40     1.0   P
# 2022 12 07 03 29 46.00   1.1200  126.7600  10.00  3.11 0.00 0.00 0.820    63
 TNTI       14.10     1.0   P
 TNTI       25.00     1.0   S
 JHMI       13.20     1.0   P
 PMMI       16.90     1.0   P
 PMMI       33.90     1.0   S
 TMSI       31.00     1.0   P
 TMSI       56.70     1.0   S
 MTAI       32.40     1.0   P
 MTAI       55.80     1.0   S
 LBMI       31.90     1.0   P
 LBMI       56.50     1.0   S
  MNI       33.00     1.0   P
  MNI       58.60     1.0   S
 PBCI       45.10     1.0   P
 PBCI       80.20     1.0   S
# 2022 12 06 23 12  0.70   1.1400  126.2900  86.00  3.23 0.00 0.00 0.770    64
 TNTI       21.20     1.0   P
 TNTI       38.90     1.0   S
 JHMI       20.80     1.0   P
 JHMI       38.10     1.0   S
 PMMI       42.30     1.0   S
 TMSI       22.80     1.0   P
 TMSI       40.40     0.0   S
  MNI       25.20     1.0   P
  MNI       43.70     0.0   S
TBMCM       29.30     1.0   P
TBMCM       51.90     1.0   S
 WBMI       29.90     1.0   P
 WBMI       50.90     1.0   S
 PSSI       30.70     1.0   P
 PBCI       37.70     1.0   P
 PBCI       65.60     1.0   S
# 2022 12 06 20 27 29.40   1.1700  126.8400  31.00  3.06 0.00 0.00 0.750    65
 JHMI       13.40     1.0   P
 JHMI       23.80     1.0   S
 TNTI       13.20     1.0   P
 TNTI       23.70     1.0   S
 IHMI       15.80     1.0   P
 IHMI       25.30     1.0   S
 PMMI       18.00     1.0   P
 WHMI       22.10     1.0   P
 WBMI       22.30     1.0   P
 MTAI       28.50     1.0   P
 LBMI       31.10     1.0   P
 TMSI       31.00     1.0   P
  MNI       32.80     1.0   P
 PSSI       33.50     1.0   P
TBMCM       34.10     1.0   P
 PBCI       43.50     1.0   P
 KMSI       45.60     1.0   P
 SANI       48.50     1.0   P
# 2022 12 06 16 36  2.90   1.2300  126.1800  38.00  2.92 0.00 0.00 0.700    66
 TMSI       21.00     1.0   P
 TMSI       37.20     1.0   S
 TNTI       21.00     1.0   P
 JHMI       21.70     1.0   P
 JHMI       40.00     1.0   S
  MNI       22.60     1.0   P
  MNI       40.40     1.0   S
 IHMI       22.30     1.0   P
 IHMI       40.10     1.0   S
 PMMI       24.10     1.0   P
TBMCM       26.00     1.0   P
 PSSI       27.10     1.0   P
 PSSI       48.40     1.0   S
 LBMI       36.30     1.0   P
 KMSI       36.50     1.0   P
 PBCI       35.60     1.0   P
 PBCI       62.20     1.0   S
 TGCM       48.40     1.0   P
# 2022 12 06 12 52 25.80   0.9300  127.7800  10.00  3.15 0.00 0.00 0.620    67
 JHMI        7.90     1.0   P
 JHMI       13.50     1.0   S
 WHMI        8.40     1.0   P
 WHMI       14.40     1.0   S
 TNTI        9.30     1.0   P
 TNTI       16.70     1.0   S
 WBMI       12.20     1.0   P
 WBMI       21.20     1.0   S
 IHMI       12.30     1.0   P
 IHMI       20.40     1.0   S
 PMMI       13.20     1.0   P
 PMMI       22.50     1.0   S
 MTAI       23.60     1.0   P
 MTAI       44.50     1.0   S
 LBMI       28.10     1.0   P
 LBMI       48.50     1.0   S
# 2022 12 06 11 29  5.30   1.4900  126.3300   8.00  3.23 0.00 0.00 0.700    68
 JHMI       22.20     1.0   P
 JHMI       38.00     1.0   S
 IHMI       22.00     1.0   P
 TNTI       23.50     1.0   P
 TNTI       39.70     1.0   S
 TMSI       26.20     1.0   P
 TMSI       43.60     1.0   S
  MNI       27.50     1.0   P
  MNI       46.10     1.0   S
 PMMI       28.00     1.0   P
 PSSI       28.20     1.0   P
 PSSI       47.60     1.0   S
 WHMI       32.30     1.0   P
TBMCM       32.90     1.0   P
 WBMI       34.00     1.0   P
 MTAI       36.00     1.0   P
 MTAI       61.60     1.0   S
 PBCI       41.40     1.0   P
# 2022 12 06 00 00 34.20   0.7400  125.9000  10.00  3.46 0.00 0.00 0.920    69
 TMSI       19.70     1.0   P
 TMSI       36.10     1.0   S
  MNI       22.70     1.0   P
  MNI       40.90     1.0   S
TBMCM       22.90     1.0   P
TBMCM       42.10     1.0   S
 PMMI       25.40     1.0   P
 JHMI       28.30     1.0   P
 JHMI       51.40     1.0   S
 PBCI       31.90     1.0   P
 PBCI       57.20     1.0   S
 KMSI       33.30     1.0   P
 KMSI       59.00     1.0   S
 LBMI       35.70     1.0   P
 KGCM       48.80     1.0   P
 KGCM       97.20     0.0   S
 SMSI       56.20     1.0   P
 SMSI       98.80     1.0   S
# 2022 12 05 13 48 25.10   1.7800  128.4900  14.00  3.55 0.00 0.00 0.470    70
 MTAI       10.80     1.0   P
 MTAI       17.00     1.0   S
 WHMI       15.90     1.0   P
 WHMI       25.90     1.0   S
 IHMI       18.80     1.0   P
 JHMI       22.80     1.0   P
 JHMI       38.40     1.0   S
 TNTI       26.90     1.0   P
 TNTI       46.10     1.0   S
 WBMI       27.50     1.0   P
 WBMI       47.90     1.0   S
 PMMI       30.40     1.0   P
 PMMI       53.40     1.0   S
 LBMI       42.20     1.0   P
 LBMI       74.30     1.0   S
 MGAI       45.40     1.0   P
 OBMI       49.20     1.0   P
 PSSI       49.80     1.0   P
 PSSI       89.10     1.0   S
 TMSI       55.30     1.0   P
  SWI       57.70     1.0   P
TBMCM       61.20     1.0   P
 PBCI       70.50     1.0   P
# 2022 12 05 09 31 49.90   1.6200  126.3400  10.00  3.30 0.00 0.00 1.120    71
 IHMI       23.20     1.0   P
 IHMI       36.90     1.0   S
 JHMI       23.60     1.0   P
 JHMI       39.10     0.0   S
 TNTI       24.00     1.0   P
 TMSI       26.60     1.0   P
 TMSI       44.70     1.0   S
 PSSI       26.30     1.0   P
 PSSI       43.80     1.0   S
  MNI       47.90     1.0   S
 PMMI       30.70     1.0   P
 PMMI       48.80     1.0   S
 WHMI       31.40     1.0   P
TBMCM       33.70     1.0   P
TBMCM       57.10     1.0   S
 WBMI       34.90     1.0   P
 WBMI       59.30     1.0   S
 MTAI       35.50     1.0   P
 MGAI       39.30     1.0   P
 PBCI       42.30     1.0   P
# 2022 12 05 07 51 59.20   2.4400  128.5100   5.00  4.27 0.00 0.00 0.470    72
 MTAI        7.40     1.0   P
 MTAI       11.90     1.0   S
 IHMI       23.90     1.0   P
 WHMI       25.80     1.0   P
 WHMI       44.30     1.0   S
 JHMI       29.30     1.0   P
 JHMI       52.40     1.0   S
 TNTI       33.60     1.0   P
 WBMI       37.00     1.0   P
 WBMI       65.20     1.0   S
 MGAI       39.60     1.0   P
 MGAI       70.40     1.0   S
 PSSI       50.20     1.0   P
 PSSI       88.40     1.0   S
 LBMI       51.70     1.0   P
 LBMI       90.70     1.0   S
 TMSI       59.70     1.0   P
 TMSI      104.80     1.0   S
TBMCM       66.20     1.0   P
TBMCM      116.70     1.0   S
 PBCI       74.60     1.0   P
 PBCI      132.70     1.0   S
 SMSI       94.30     1.0   P
# 2022 12 05 00 23 37.40   1.4800  127.3000 139.00  3.13 0.00 0.00 0.410    73
 IHMI       19.40     1.0   P
 JHMI       21.10     1.0   P
 JHMI       36.80     1.0   S
 TNTI       22.20     1.0   P
 WHMI       24.30     1.0   P
 WHMI       41.30     1.0   S
 MTAI       25.40     1.0   P
 PSSI       51.90     0.0   P
 TMSI       39.50     1.0   P
 PBCI       52.40     1.0   P
 SANI       56.30     1.0   P
# 2022 12 04 21 22 27.70  -0.9900  126.2900 735.00  3.42 0.00 0.00 0.690    74
 SANI       83.40     1.0   P
 LBMI       85.50     1.0   P
 OBMI       83.00     1.0   P
 WBMI       87.00     1.0   P
TBMCM       90.00     0.0   P
 WHMI       88.60     1.0   P
 IHMI       88.80     1.0   P
 KMSI       91.10     0.0   P
 KMSI      162.10     1.0   S
  MNI       91.90     0.0   P
  MNI      161.10     1.0   S
 BGCI       89.30     1.0   P
 BGCI      162.90     1.0   S
 MTAI       89.50     0.0   P
 MTAI      170.20     1.0   S
 SMSI       91.90     0.0   P
 SMSI      177.10     1.0   S
# 2022 12 04 08 15 34.20  -2.1800  125.3800 207.00  3.86 0.00 0.00 1.100    75
 SANI       29.70     1.0   P
 SANI       51.90     1.0   S
 NLAI       40.40     1.0   P
 BGCI       41.60     1.0   P
 OBMI       43.70     1.0   P
 LUWI       48.00     1.0   P
 PBCI       46.90     1.0   P
TBMCM       50.90     1.0   P
 KMSI       52.00     1.0   P
 TAMI       49.40     1.0   P
LKUCM       55.60     1.0   P
 TMSI       57.00     1.0   P
 TGCM       56.50     1.0   P
 SMSI       65.50     1.0   P
TOLI2       82.60     1.0   P
# 2022 12 03 21 52 19.10  -0.1700  125.4300  11.00  3.33 0.00 0.00 0.960    76
TBMCM       21.60     1.0   P
TBMCM       37.20     1.0   S
 PBCI       26.30     1.0   P
 PBCI       44.80     1.0   S
 TMSI       28.20     1.0   P
 TMSI       47.90     1.0   S
 KMSI       27.20     1.0   P
 KMSI       49.10     1.0   S
  MNI       29.60     1.0   P
  MNI       53.10     1.0   S
 SANI       33.50     1.0   P
 SANI       57.20     1.0   S
 PMMI       36.70     1.0   P
 PMMI       61.60     1.0   S
 LBMI       36.20     1.0   P
 LBMI       61.40     1.0   S
 BGCI       36.90     1.0   P
 BGCI       64.40     1.0   S
 TGCM       40.00     1.0   P
 TGCM       70.70     1.0   S
 OBMI       41.10     1.0   P
 OBMI       70.30     1.0   S
 KGCM       43.30     1.0   P
 KGCM       76.90     1.0   S
 LUWI       45.90     1.0   P
 LUWI       80.50     1.0   S
 SMSI       51.20     1.0   P
 SMSI       91.40     1.0   S
 MRSI       54.20     1.0   P
 MTAI       57.40     1.0   P
# 2022 12 03 16 32 12.00   1.7400  126.5200  10.00  3.51 0.00 0.00 0.880    77
 IHMI       19.50     1.0   P
 IHMI       34.00     1.0   S
 JHMI       21.40     1.0   P
 JHMI       37.00     1.0   S
 TNTI       23.00     1.0   P
 TNTI       40.90     1.0   S
 PSSI       26.00     1.0   P
 PSSI       45.70     1.0   S
 PMMI       28.60     1.0   P
 PMMI       50.10     1.0   S
 TMSI       28.60     1.0   P
 TMSI       49.10     1.0   S
  MNI       29.70     1.0   P
  MNI       51.80     1.0   S
 WHMI       30.30     1.0   P
 WHMI       53.60     1.0   S
 MTAI       31.30     1.0   P
 MTAI       53.80     1.0   S
 WBMI       33.40     1.0   P
 WBMI       57.90     1.0   S
TBMCM       35.70     1.0   P
TBMCM       64.10     1.0   S
 MGAI       38.20     1.0   P
 MGAI       66.50     1.0   S
 LBMI       42.10     1.0   P
 LBMI       73.60     1.0   S
 KMSI       45.90     1.0   P
 KMSI       79.50     1.0   S
 PBCI       44.70     1.0   P
 PBCI       77.10     1.0   S
 TGCM       57.40     1.0   P
 TGCM      103.30     1.0   S
 SANI       59.00     1.0   P
 KGCM       59.40     1.0   P
 KGCM      105.40     1.0   S
 SMSI       64.90     1.0   P
 LUWI       71.20     1.0   P
 MRSI       72.40     1.0   P
# 2022 12 03 15 29 51.10   1.1900  126.8000  32.00  2.67 0.00 0.00 0.560    78
 JHMI       14.00     1.0   P
 JHMI       24.90     1.0   S
 TNTI       13.30     1.0   P
 IHMI       15.30     1.0   P
 IHMI       26.90     1.0   S
 PMMI       17.80     1.0   P
 PMMI       32.20     1.0   S
 WHMI       22.30     1.0   P
 MTAI       30.00     1.0   P
 MTAI       50.10     1.0   S
TBMCM       35.90     1.0   P
TBMCM       62.10     1.0   S
 PBCI       43.70     1.0   P
 PBCI       77.90     1.0   S
# 2022 12 03 08 55 39.30   3.0900  126.5100  10.00  4.35 0.00 0.00 0.640    79
 MGAI       18.40     1.0   P
 MGAI       30.50     1.0   S
 PSSI       21.00     1.0   P
 PSSI       36.00     1.0   S
 IHMI       32.00     1.0   P
 MTAI       32.60     1.0   P
 JHMI       36.90     1.0   P
  MNI       38.50     1.0   P
 TMSI       38.80     1.0   P
 TNTI       40.00     1.0   P
 WHMI       41.40     1.0   P
 PMMI       45.90     1.0   P
TBMCM       48.40     1.0   P
 KMSI       55.80     1.0   P
 PBCI       57.00     1.0   P
 TGCM       65.40     1.0   P
 SMSI       71.20     1.0   P
 MRSI       79.70     1.0   P
 LUWI       83.80     1.0   P
TOLI2       89.30     1.0   P
