# 2022 12 16 04 24 46.40   2.1700  129.1700   1.00  4.52 0.00 0.00 0.490    27
 MTAI       16.90     1.0   P
 MTAI       29.20     1.0   S
 WHMI       26.40     1.0   P
 WHMI       47.30     1.0   S
 IHMI       32.10     1.0   P
 IHMI       54.20     1.0   S
 JHMI       35.00     1.0   P
 JHMI       61.30     1.0   S
 WBMI       37.60     1.0   P
 TNTI       38.80     1.0   P
 TNTI       68.00     1.0   S
 PMMI       41.80     1.0   P
 PMMI       73.50     1.0   S
 MGAI       49.50     1.0   P
 MGAI       87.90     1.0   S
 LBMI       52.40     1.0   P
 LBMI       92.00     1.0   S
 PSSI       60.40     1.0   P
 PSSI      105.80     1.0   S
 TMSI       67.60     1.0   P
 TMSI      118.80     1.0   S
TBMCM       71.90     1.0   P
TBMCM      130.40     1.0   S
 KMSI       82.50     1.0   P
 KMSI      145.80     1.0   S
 PBCI       82.60     1.0   P
 PBCI      145.90     1.0   S
 SMSI      182.30     0.0   S
# 2022 12 15 17 54 29.20   0.3100  125.0000   8.00  3.67 0.00 0.00 0.850    28
TBMCM       12.50     1.0   P
TBMCM       20.90     1.0   S
 PBCI       17.50     1.0   P
 TMSI       18.10     1.0   P
 TMSI       32.50     1.0   S
 KMSI       19.60     1.0   P
 KMSI       33.30     1.0   S
  MNI       21.70     1.0   P
 TGCM       32.40     1.0   P
 BGCI       35.00     1.0   P
 KGCM       36.90     1.0   P
 TNTI       40.60     1.0   P
 PMMI       39.40     1.0   P
 PSSI       39.80     1.0   P
 SANI       41.00     1.0   P
 JHMI       41.90     1.0   P
 LUWI       44.20     1.0   P
 LBMI       42.50     1.0   P
 SMSI       43.30     1.0   P
 IHMI       46.70     1.0   P
 WBMI       45.50     1.0   P
 MRSI       49.70     1.0   P
 OBMI       48.90     1.0   P
 WHMI       51.10     1.0   P
 APSI       57.30     1.0   P
 MTAI       59.10     1.0   P
TOLI2       65.00     1.0   P
# 2022 12 15 03 31 10.20   2.8600  127.5500  22.00  5.19 0.00 0.00 0.710    29
 MTAI       18.50     1.0   P
 IHMI       23.40     1.0   P
 MGAI       24.20     1.0   P
 JHMI       30.10     1.0   P
 WHMI       30.50     1.0   P
 TNTI       34.00     1.0   P
 PSSI       34.20     1.0   P
 PMMI       39.70     1.0   P
 WBMI       40.50     1.0   P
 TMSI       46.70     1.0   P
  MNI       47.00     1.0   P
 LBMI       53.10     1.0   P
TBMCM       54.80     1.0   P
 OBMI       61.80     1.0   P
 KMSI       64.60     1.0   P
 PBCI       64.10     1.0   P
  DAV       69.90     1.0   P
 TGCM       74.80     1.0   P
 SANI       75.00     1.0   P
 KGCM       76.30     1.0   P
  SWI       76.50     1.0   P
 SMSI       79.60     1.0   P
 BGCI       82.00     1.0   P
 NLAI       87.40     1.0   P
 MRSI       89.30     1.0   P
 LUWI       91.10     1.0   P
 KRAI       91.70     1.0   P
 TSPI       91.00     1.0   P
 MSAI       92.30     1.0   P
 TAMI       94.90     1.0   P
TOLI2       99.80     1.0   P
 APSI      101.30     1.0   P
 FAKI      106.30     1.0   P
 MPSI      116.10     1.0   P
# 2022 12 13 21 28 55.90   0.9100  128.4000   6.00  2.78 0.00 0.00 0.550    30
 WHMI        6.90     1.0   P
 WHMI       12.00     1.0   S
 WBMI       14.40     1.0   P
 JHMI       19.30     1.0   P
 JHMI       30.90     1.0   S
 IHMI       19.30     1.0   P
 IHMI       33.60     1.0   S
 TNTI       20.40     1.0   P
 TNTI       34.10     1.0   S
 PMMI       20.70     1.0   P
 MTAI       23.40     1.0   P
 LBMI       32.00     1.0   P
  SWI       53.00     1.0   P
# 2022 12 13 09 37 14.60   3.0900  125.8800 132.00  3.89 0.00 0.00 0.750    31
 PSSI       20.20     1.0   P
 PSSI       35.50     1.0   S
 MGAI       25.10     1.0   P
 MGAI       46.60     1.0   S
  MNI       60.50     1.0   S
 TMSI       34.30     1.0   P
 TMSI       62.40     1.0   S
 IHMI       37.70     1.0   P
 IHMI       66.40     1.0   S
 MTAI       40.60     1.0   P
 MTAI       72.80     1.0   S
 JHMI       41.70     1.0   P
 JHMI       72.90     1.0   S
TBMCM       42.80     1.0   P
TBMCM       75.40     1.0   S
 TNTI       43.00     1.0   P
 TNTI       76.60     1.0   S
 WHMI       46.60     1.0   P
 WHMI       84.30     1.0   S
 PMMI       47.80     1.0   P
 PMMI       86.40     1.0   S
 PBCI       50.30     1.0   P
 PBCI       89.30     1.0   S
 WBMI       50.50     1.0   P
 WBMI       92.30     1.0   S
 LBMI       59.80     1.0   P
 LBMI      107.60     1.0   S
# 2022 12 13 06 23 57.40   1.9100  127.2400  13.00  3.90 0.00 0.00 1.740    32
 IHMI       11.70     1.0   P
 IHMI       18.30     1.0   S
 JHMI       16.20     1.0   P
 JHMI       30.10     1.0   S
 MTAI       19.40     1.0   P
 MTAI       34.10     1.0   S
 TNTI       20.50     1.0   P
 TNTI       35.10     1.0   S
 WHMI       21.00     1.0   P
 WHMI       39.70     1.0   S
 PMMI       26.40     1.0   P
 PMMI       48.40     1.0   S
 WBMI       28.50     1.0   P
 WBMI       52.20     1.0   S
 PSSI       32.70     1.0   P
 PSSI       60.20     1.0   S
 TMSI       40.00     1.0   P
 TMSI       69.70     1.0   S
 LBMI       41.30     1.0   P
 LBMI       74.40     1.0   S
TBMCM       46.40     1.0   P
TBMCM       82.50     1.0   S
 OBMI       50.80     1.0   P
 OBMI       93.00     1.0   S
 KMSI       56.50     1.0   P
 KMSI       98.30     1.0   S
 PBCI       55.50     1.0   P
 PBCI       95.40     1.0   S
 SANI       61.70     1.0   P
 SANI      104.70     1.0   S
# 2022 12 13 05 38  0.50   0.5600  127.5100  95.00  3.36 0.00 0.00 0.940    33
 PMMI       13.00     1.0   P
 PMMI       27.50     1.0   S
 TNTI       13.90     1.0   P
 WBMI       15.00     1.0   P
 JHMI       16.40     1.0   P
 WHMI       19.40     1.0   P
 IHMI       19.70     1.0   P
 LBMI       22.70     1.0   P
 MTAI       30.70     1.0   P
 OBMI       29.60     1.0   P
 TMSI       40.90     1.0   P
  MNI       42.70     1.0   P
TBMCM       43.90     1.0   P
 SANI       45.60     1.0   P
 PSSI       47.00     1.0   P
 PBCI       52.40     1.0   P
 KMSI       53.10     1.0   P
 NLAI       57.80     1.0   P
# 2022 12 12 14 07 44.00   2.7100  128.2400  12.00  3.32 0.00 0.00 0.530    34
 MTAI       11.00     1.0   P
 MTAI       18.30     1.0   S
 IHMI       23.60     1.0   P
 IHMI       43.00     1.0   S
 WHMI       27.50     1.0   P
 WHMI       49.80     1.0   S
 JHMI       31.80     1.0   P
 JHMI       54.10     1.0   S
 MGAI       34.40     1.0   P
 MGAI       59.90     1.0   S
 TNTI       34.40     1.0   P
 TNTI       62.40     1.0   S
 WBMI       39.50     1.0   P
 WBMI       68.70     1.0   S
 PMMI       39.60     1.0   P
  MNI       56.30     1.0   P
# 2022 12 12 08 38 15.20   1.0800  127.9300   3.00  4.56 0.00 0.00 0.710    35
 WHMI        5.20     1.0   P
 WHMI        7.80     1.0   S
 JHMI        9.50     1.0   P
 JHMI       15.70     1.0   S
 IHMI       11.40     1.0   P
 IHMI       18.50     1.0   S
 TNTI       12.50     1.0   P
 WBMI       14.20     1.0   P
 WBMI       23.70     1.0   S
 PMMI       16.50     1.0   P
 PMMI       28.50     1.0   S
 MTAI       20.60     1.0   P
 MTAI       37.20     1.0   S
 LBMI       30.40     1.0   P
 PSSI       48.50     1.0   P
 TMSI       49.40     1.0   P
 MGAI       50.20     1.0   P
TBMCM       53.20     1.0   P
 SANI       55.80     1.0   P
 PBCI       61.80     1.0   P
 KMSI       61.70     1.0   P
 KRAI       69.30     1.0   P
 MSAI       69.10     1.0   P
 TAMI       73.20     1.0   P
 TSPI       73.70     1.0   P
 TGCM       75.40     1.0   P
 SMSI       83.60     1.0   P
 FAKI       87.40     1.0   P
 APSI       98.30     1.0   P
# 2022 12 12 05 47 25.90  -0.3700  126.8000 213.00  3.21 0.00 0.00 0.930    36
 LBMI       32.30     1.0   P
 LBMI       56.10     1.0   S
 PMMI       30.80     1.0   P
 PMMI       55.70     1.0   S
 TNTI       29.10     0.0   P
 TNTI       58.10     1.0   S
 OBMI       32.80     1.0   P
 OBMI       58.60     1.0   S
 WBMI       33.50     1.0   P
 WBMI       59.50     1.0   S
 JHMI       35.80     1.0   P
 JHMI       63.80     1.0   S
 SANI       38.40     1.0   P
 SANI       67.60     1.0   S
 WHMI       39.40     1.0   P
 WHMI       65.80     0.0   S
 IHMI       38.80     1.0   P
 IHMI       72.40     1.0   S
# 2022 12 11 21 48 44.10  -0.8300  126.9900  34.00  3.26 0.00 0.00 0.310    37
 LBMI       12.40     1.0   P
 LBMI       21.20     1.0   S
 OBMI       16.10     1.0   P
 OBMI       27.50     1.0   S
 SANI       26.00     1.0   P
 SANI       45.00     1.0   S
 IHMI       36.80     1.0   P
# 2022 12 11 18 00 15.30   0.5500  125.3400   7.00  2.80 0.00 0.00 0.680    38
TBMCM       15.20     1.0   P
 TMSI       16.80     1.0   P
 TMSI       28.60     1.0   S
 PBCI       22.70     1.0   P
 KMSI       25.00     1.0   P
 PSSI       36.20     1.0   P
 TGCM       38.80     1.0   P
 TGCM       66.70     1.0   S
 KGCM       42.10     1.0   P
# 2022 12 11 13 55 44.10   2.2100  129.2300   8.00  4.08 0.00 0.00 1.030    39
 MTAI       17.90     1.0   P
 MTAI       29.80     1.0   S
 WHMI       27.90     1.0   P
 WHMI       49.40     1.0   S
 IHMI       32.50     1.0   P
 JHMI       35.50     1.0   P
 JHMI       62.40     1.0   S
 WBMI       38.10     1.0   P
 TNTI       40.00     1.0   P
 TNTI       68.00     1.0   S
 PMMI       42.50     1.0   P
 PMMI       73.40     1.0   S
 MGAI       49.30     1.0   P
 MGAI       87.30     1.0   S
 LBMI       52.40     1.0   P
  SWI       55.80     1.0   P
 PSSI       60.70     1.0   P
 PSSI      105.60     1.0   S
 OBMI       58.10     1.0   P
 TMSI       69.30     1.0   P
 TSPI       69.70     1.0   P
 BGCI       99.10     1.0   P
# 2022 12 11 04 03 15.30   2.5500  127.0700   8.00  3.38 0.00 0.00 0.520    40
 IHMI       21.50     1.0   P
 IHMI       36.50     1.0   S
 MTAI       23.40     1.0   P
 MTAI       40.10     1.0   S
 MGAI       26.20     1.0   P
 MGAI       46.90     1.0   S
 JHMI       27.40     1.0   P
 JHMI       47.20     1.0   S
 PSSI       30.40     1.0   P
 PSSI       51.60     1.0   S
 TNTI       30.40     1.0   P
 WHMI       32.60     1.0   P
 PMMI       36.90     1.0   P
 TMSI       40.70     1.0   P
TBMCM       49.10     1.0   P
 PBCI       57.90     1.0   P
# 2022 12 11 02 28 43.90   1.5900  128.2400  10.00  5.05 0.00 0.00 0.940    41
 WHMI       10.20     1.0   P
 WHMI       18.00     1.0   S
 MTAI       12.40     1.0   P
 MTAI       21.30     1.0   S
 IHMI       13.80     1.0   P
 IHMI       23.10     1.0   S
 JHMI       16.70     1.0   P
 JHMI       30.30     1.0   S
 TNTI       20.50     1.0   P
 TNTI       38.30     1.0   S
 WBMI       23.50     1.0   P
 WBMI       43.40     1.0   S
 PMMI       25.30     1.0   P
 PMMI       46.10     1.0   S
 LBMI       38.00     1.0   P
 LBMI       69.80     1.0   S
 MGAI       47.10     1.0   P
 MGAI       81.90     1.0   S
 OBMI       46.20     1.0   P
 PSSI       49.10     1.0   P
 PSSI       87.70     1.0   S
 TMSI       51.80     1.0   P
  MNI       53.70     1.0   P
TBMCM       57.60     1.0   P
TBMCM      104.00     1.0   S
  SWI       58.80     1.0   P
  SWI      104.60     1.0   S
 SANI       63.50     1.0   P
 PBCI       66.10     1.0   P
 PBCI      117.60     1.0   S
 KMSI       67.00     1.0   P
 KRAI       74.90     1.0   P
 KRAI      132.70     1.0   S
 TSPI       73.60     1.0   P
 TSPI      132.50     1.0   S
 NLAI       74.40     1.0   P
 NLAI      133.30     1.0   S
 MSAI       76.70     1.0   P
 MSAI      134.30     1.0   S
 TAMI       79.60     1.0   P
 TGCM       79.90     1.0   P
 BGCI       81.70     1.0   P
 KGCM       82.30     1.0   P
 SMSI       88.00     1.0   P
 SMSI      157.30     1.0   S
 FAKI       88.60     1.0   P
 FAKI      158.20     1.0   S
  DAV       90.70     1.0   P
  DAV      159.10     1.0   S
 LUWI       90.00     1.0   P
 BNDI       93.40     1.0   P
 MRSI       94.30     1.0   P
 MRSI      167.90     1.0   S
 APSI      102.40     1.0   P
 TPCI      105.90     1.0   P
TOLI2      109.70     1.0   P
 WMCM      111.30     1.0   P
LKUCM      111.70     1.0   P
LKUCM      198.90     1.0   S
  KDI      114.80     1.0   P
 POCI      118.90     1.0   P
 MPSI      121.50     1.0   P
 SDCI      127.60     1.0   P
  PCI      127.30     1.0   P
  PCI      226.80     1.0   S
 SAUI      144.00     1.0   P
 MMRI      167.50     1.0   P
 GENI      179.00     1.0   P
 JAGI      240.40     1.0   P
 BBJI      298.30     1.0   P
 BBJI      547.40     1.0   S
# 2022 12 10 18 06  6.40   0.6800  129.1800  10.00  3.72 0.00 0.00 0.670    42
 WHMI       19.60     1.0   P
 WHMI       35.10     1.0   S
 WBMI       23.60     1.0   P
 WBMI       42.20     1.0   S
 JHMI       30.80     1.0   P
 JHMI       54.20     1.0   S
 MTAI       29.70     1.0   P
 MTAI       53.40     1.0   S
 PMMI       30.90     1.0   P
 PMMI       54.20     1.0   S
 TNTI       31.10     1.0   P
 TNTI       54.50     1.0   S
 IHMI       32.10     1.0   P
 LBMI       35.30     1.0   P
 OBMI       41.60     1.0   P
  SWI       42.20     1.0   P
 TSPI       56.00     1.0   P
 MSAI       62.70     1.0   P
 KRAI       62.20     1.0   P
 SANI       63.00     1.0   P
 PSSI       65.30     1.0   P
 TMSI       66.00     1.0   P
 NLAI       66.60     1.0   P
 TAMI       67.30     1.0   P
TBMCM       70.40     1.0   P
 FAKI       70.30     1.0   P
 PBCI       77.30     1.0   P
 KMSI       78.50     1.0   P
# 2022 12 10 13 10 24.30   1.8300  127.1800  80.00  3.00 0.00 0.00 0.720    43
 IHMI       14.70     1.0   P
 IHMI       25.60     1.0   S
 JHMI       17.00     1.0   P
 JHMI       31.10     1.0   S
 TNTI       20.00     1.0   P
 TNTI       36.20     1.0   S
 MTAI       20.90     1.0   P
 MTAI       37.70     1.0   S
 WHMI       21.00     1.0   P
 PMMI       25.00     1.0   P
 PMMI       45.70     1.0   S
 WBMI       27.00     1.0   P
 PSSI       32.70     1.0   P
 PSSI       57.40     1.0   S
 MGAI       34.80     1.0   P
 TMSI       37.00     1.0   P
 TMSI       65.30     1.0   S
 LBMI       38.30     1.0   P
TBMCM       42.70     1.0   P
TBMCM       75.40     1.0   S
 PBCI       51.10     1.0   P
 PBCI       90.70     1.0   S
# 2022 12 10 06 59 39.80  -1.1300  125.5000 750.00  3.41 0.00 0.00 0.740    44
 SANI       83.90     1.0   P
TBMCM       88.20     1.0   P
 LBMI       88.60     1.0   P
 PBCI       86.90     1.0   P
 BGCI       88.10     1.0   P
 OBMI       89.30     1.0   P
 KMSI       88.20     1.0   P
 PMMI       89.00     1.0   P
 TMSI       88.70     1.0   P
 NLAI       88.70     1.0   P
  MNI       89.70     1.0   P
 TNTI       88.90     1.0   P
 LUWI       90.80     1.0   P
 WBMI       89.40     1.0   P
 TGCM       90.60     1.0   P
 KGCM       91.40     1.0   P
 TAMI       85.20     0.0   P
# 2022 12 10 03 45 11.70   2.0100  126.9000  36.00  4.40 0.00 0.00 0.980    45
 IHMI       15.00     1.0   P
 IHMI       26.80     1.0   S
 JHMI       18.90     1.0   P
 JHMI       34.40     1.0   S
 TNTI       23.30     1.0   P
 TNTI       38.00     1.0   S
 MTAI       22.60     1.0   P
 MTAI       40.20     1.0   S
 WHMI       26.20     1.0   P
 WHMI       45.00     1.0   S
 PSSI       27.50     1.0   P
 PSSI       48.70     1.0   S
 PMMI       28.80     1.0   P
 PMMI       47.50     1.0   S
 WBMI       31.40     1.0   P
 WBMI       53.70     1.0   S
 MGAI       30.10     1.0   P
 TMSI       33.70     1.0   P
 TMSI       58.70     1.0   S
 PBCI       48.00     1.0   P
 PBCI       85.70     1.0   S
 OBMI       51.30     1.0   P
 OBMI       90.90     1.0   S
 TAMI       81.80     1.0   P
# 2022 12 10 02 28 29.90   2.3300  126.8100  19.00  3.67 0.00 0.00 0.760    46
 IHMI       19.00     1.0   P
 IHMI       36.00     1.0   S
 JHMI       24.80     1.0   P
 JHMI       42.30     1.0   S
 PSSI       25.30     1.0   P
 PSSI       45.50     1.0   S
 MTAI       25.10     1.0   P
 MTAI       43.70     1.0   S
 TNTI       26.30     1.0   P
 TNTI       49.20     1.0   S
 WHMI       30.70     1.0   P
 WHMI       53.80     1.0   S
 PMMI       32.80     1.0   P
 PMMI       59.80     1.0   S
 TMSI       35.60     1.0   P
 TMSI       60.90     1.0   S
  MNI       35.60     1.0   P
  MNI       61.10     1.0   S
 WBMI       37.50     1.0   P
 WBMI       65.00     1.0   S
TBMCM       43.50     1.0   P
TBMCM       75.80     1.0   S
 LBMI       47.10     1.0   P
 KMSI       51.40     1.0   P
 PBCI       51.60     1.0   P
# 2022 12 10 00 55 33.30   1.0800  125.8200  37.00  3.52 0.00 0.00 0.860    47
 TMSI       16.50     1.0   P
 TMSI       29.50     1.0   S
  MNI       18.50     1.0   P
  MNI       32.30     1.0   S
TBMCM       20.60     1.0   P
TBMCM       36.80     1.0   S
 TNTI       24.10     1.0   P
 TNTI       46.30     1.0   S
 JHMI       28.00     1.0   P
 JHMI       47.90     1.0   S
 PSSI       26.70     1.0   P
 PSSI       47.80     1.0   S
 PMMI       27.30     1.0   P
 PMMI       48.00     1.0   S
 KMSI       31.10     1.0   P
 KMSI       55.50     1.0   S
 PBCI       30.00     1.0   P
 PBCI       53.50     1.0   S
 WBMI       34.10     1.0   P
 WBMI       59.80     1.0   S
 MTAI       41.30     1.0   P
 MTAI       72.70     1.0   S
# 2022 12 09 23 02 27.10   2.7300  128.7000 239.00  4.67 0.00 0.00 0.990    48
 MTAI       32.60     1.0   P
 MTAI       54.90     0.0   S
 IHMI       40.40     1.0   P
 IHMI       69.20     1.0   S
 WHMI       40.80     1.0   P
 WHMI       69.90     1.0   S
 JHMI       45.30     0.0   P
 JHMI       75.20     1.0   S
 TNTI       46.80     1.0   P
 TNTI       80.30     1.0   S
 MGAI       44.70     1.0   P
 WBMI       48.10     1.0   P
 WBMI       83.20     1.0   S
 PMMI       50.30     0.0   P
 PMMI       86.90     1.0   S
 PSSI       53.90     1.0   P
 PSSI      100.10     1.0   S
 LBMI      107.50     0.0   S
 TMSI       64.00     1.0   P
 TMSI      111.50     0.0   S
  MNI       62.50     1.0   P
  MNI      112.10     0.0   S
 OBMI       59.40     0.0   P
TBMCM       69.60     1.0   P
TBMCM      125.80     1.0   S
 PBCI       78.60     1.0   P
 TSPI       78.70     1.0   P
 SANI       81.60     1.0   P
# 2022 12 09 21 46 11.30   0.2800  124.5400  15.00  3.38 0.00 0.00 0.750    49
TBMCM       10.50     1.0   P
 PBCI       10.30     1.0   P
 KMSI       13.20     1.0   P
 TMSI       19.70     1.0   P
  MNI       22.80     1.0   P
 TGCM       25.50     1.0   P
 BGCI       29.00     1.0   P
 KGCM       29.30     1.0   P
 LUWI       36.70     1.0   P
 SMSI       37.80     1.0   P
 PSSI       40.50     1.0   P
 SANI       42.10     1.0   P
 PMMI       46.20     1.0   P
# 2022 12 09 16 36 11.00   0.8100  126.2400  10.00  4.67 0.00 0.00 0.940    50
 TNTI       20.90     1.0   P
 TNTI       35.00     1.0   S
 PMMI       22.50     1.0   P
 PMMI       39.30     1.0   S
 JHMI       23.40     1.0   P
 JHMI       40.20     1.0   S
 TMSI       24.10     1.0   P
 TMSI       42.10     1.0   S
 IHMI       25.70     1.0   P
 IHMI       47.00     1.0   S
  MNI       26.80     1.0   P
TBMCM       27.40     1.0   P
 WBMI       29.60     1.0   P
 WHMI       33.30     1.0   P
 LBMI       32.30     1.0   P
 PSSI       35.60     1.0   P
 PBCI       36.00     1.0   P
 KMSI       37.40     1.0   P
 MTAI       41.80     1.0   P
 SANI       45.80     1.0   P
 TGCM       51.10     1.0   P
 BGCI       52.00     1.0   P
 KGCM       54.90     1.0   P
 SMSI       60.30     1.0   P
 LUWI       62.20     1.0   P
 NLAI       64.10     1.0   P
 MRSI       65.70     1.0   P
 KRAI       70.50     1.0   P
 TAMI       72.40     1.0   P
 APSI       73.80     1.0   P
LKUCM       84.10     1.0   P
# 2022 12 09 16 06 19.20   0.8900  125.5500  10.00  3.41 0.00 0.00 0.890    51
 TMSI       15.30     1.0   P
 TMSI       25.20     1.0   S
  MNI       17.80     1.0   P
  MNI       29.90     1.0   S
TBMCM       18.10     1.0   P
TBMCM       30.70     1.0   S
 PBCI       27.00     1.0   P
 KMSI       27.90     1.0   P
 TNTI       30.30     1.0   P
 PSSI       30.50     1.0   P
 PMMI       32.30     1.0   P
 JHMI       33.70     1.0   P
 IHMI       36.40     1.0   P
 WBMI       38.70     1.0   P
 LBMI       39.70     1.0   P
 TGCM       41.20     1.0   P
 KGCM       44.40     1.0   P
 BGCI       46.40     1.0   P
 SMSI       49.90     1.0   P
 LUWI       54.40     1.0   P
