# 2022 12 03 05 22 33.30   1.6600  126.5200   3.00  3.82 0.00 0.00 0.940    80
 IHMI       19.40     1.0   P
 IHMI       34.30     1.0   S
 JHMI       21.20     1.0   P
 JHMI       37.70     1.0   S
 TNTI       22.60     1.0   P
 TNTI       39.70     1.0   S
 PSSI       27.90     1.0   P
 PSSI       47.80     1.0   S
 PMMI       28.10     1.0   P
 PMMI       48.40     1.0   S
 TMSI       29.90     1.0   P
 TMSI       50.50     1.0   S
  MNI       28.70     1.0   P
  MNI       53.30     1.0   S
 WHMI       29.90     1.0   P
 WHMI       53.80     1.0   S
 MTAI       31.70     1.0   P
 MTAI       55.20     1.0   S
 WBMI       32.90     1.0   P
 WBMI       57.40     1.0   S
TBMCM       36.60     1.0   P
TBMCM       63.70     1.0   S
 MGAI       40.00     1.0   P
 LBMI       42.40     1.0   P
 LBMI       71.30     1.0   S
 PBCI       46.00     1.0   P
 PBCI       79.00     1.0   S
 TGCM       57.80     1.0   P
 SANI       57.80     1.0   P
 KGCM       60.80     1.0   P
 SMSI       65.90     1.0   P
 KRAI       82.70     1.0   P
# 2022 12 02 21 51 34.50  -1.9900  128.2600  35.00  3.44 0.00 0.00 0.990    81
 OBMI       16.10     1.0   P
 OBMI       28.30     1.0   S
 MSAI       25.70     1.0   P
 MSAI       45.60     1.0   S
 LBMI       25.50     1.0   P
 LBMI       45.60     1.0   S
 NLAI       26.80     1.0   P
 NLAI       47.80     1.0   S
 SANI       34.60     1.0   P
 SANI       61.90     1.0   S
 PMMI       39.00     1.0   P
 WHMI       47.50     1.0   P
  SWI       48.30     1.0   P
  SWI       84.30     1.0   S
 TSPI       55.40     1.0   P
 PBCI       70.70     1.0   P
# 2022 12 02 21 33  6.20   2.9800  128.2900  10.00  3.39 0.00 0.00 1.010    82
 MTAI       14.20     1.0   P
 MTAI       24.10     1.0   S
 IHMI       27.80     1.0   P
 IHMI       51.20     1.0   S
 WHMI       33.50     1.0   P
 WHMI       57.60     1.0   S
 MGAI       32.70     1.0   P
 MGAI       56.90     1.0   S
 JHMI       36.20     1.0   P
 JHMI       61.80     1.0   S
 TNTI       39.50     1.0   P
 TNTI       69.60     1.0   S
 PSSI       46.90     1.0   P
 PSSI       81.60     1.0   S
 PBCI       73.70     1.0   P
# 2022 12 02 06 45  5.50  -1.9200  128.3400   9.00  4.50 0.00 0.00 0.900    83
 OBMI       17.10     1.0   P
 OBMI       29.60     1.0   S
 KRAI       25.90     1.0   P
 LBMI       27.10     1.0   P
 MSAI       28.80     1.0   P
 TAMI       31.30     1.0   P
 NLAI       31.20     1.0   P
 WBMI       38.20     1.0   P
 SANI       37.40     1.0   P
 BSMI       39.90     1.0   P
 PMMI       40.50     1.0   P
 TNTI       45.80     1.0   P
 WHMI       48.90     1.0   P
  SWI       49.40     1.0   P
 JHMI       49.80     1.0   P
 TSPI       57.00     1.0   P
 FAKI       60.00     1.0   P
 MTAI       63.90     1.0   P
TBMCM       69.10     1.0   P
 PBCI       73.30     1.0   P
 SMSI       97.50     1.0   P
# 2022 12 02 02 47 26.90  -1.8800  128.3400  11.00  4.85 0.00 0.00 0.910    84
 OBMI       17.10     1.0   P
 OBMI       28.80     1.0   S
 KRAI       25.50     1.0   P
 LBMI       26.50     1.0   P
 LBMI       46.30     1.0   S
 MSAI       28.00     1.0   P
 TAMI       32.40     1.0   P
 TAMI       54.10     1.0   S
 NLAI       30.30     1.0   P
 WBMI       37.80     1.0   P
 WBMI       65.10     1.0   S
 SANI       37.70     1.0   P
 PMMI       40.00     1.0   P
 BSMI       39.70     1.0   P
 TNTI       45.50     1.0   P
 WHMI       48.00     1.0   P
 WHMI       83.30     1.0   S
 BNDI       50.20     1.0   P
 JHMI       49.20     1.0   P
  SWI       49.20     1.0   P
 IHMI       54.80     1.0   P
 TSPI       56.60     1.0   P
 FAKI       59.80     1.0   P
TBMCM       69.00     1.0   P
 TMSI       70.70     1.0   P
  MNI       71.30     1.0   P
 PBCI       72.90     1.0   P
 SMSI       98.10     1.0   P
# 2022 12 01 23 18 32.00   1.5600  127.0800  72.00  3.53 0.00 0.00 0.740    85
 IHMI       14.30     1.0   P
 JHMI       15.90     1.0   P
 TNTI       18.10     1.0   P
 WHMI       21.10     1.0   P
 PMMI       21.20     1.0   P
 MTAI       22.10     1.0   P
 MTAI       40.60     1.0   S
 WBMI       23.70     1.0   P
 TMSI       34.60     1.0   P
 TMSI       60.10     1.0   S
TBMCM       40.70     1.0   P
TBMCM       70.70     1.0   S
 PBCI       49.10     1.0   P
 PBCI       86.50     1.0   S
 SANI       56.90     1.0   P
 SANI       97.70     1.0   S
# 2022 12 01 22 56 35.70  -1.8600  128.3900  10.00  3.64 0.00 0.00 0.320    86
 OBMI       17.30     1.0   P
 OBMI       29.90     1.0   S
 KRAI       25.80     1.0   P
 LBMI       26.80     1.0   P
 LBMI       47.20     1.0   S
 PMMI       39.60     1.0   P
 TNTI       45.70     1.0   P
 WHMI       46.50     1.0   P
  SWI       48.20     1.0   P
  SWI       84.90     1.0   S
 TSPI       57.70     1.0   P
# 2022 12 01 20 28 15.90   2.9000  127.0800  10.00  3.54 0.00 0.00 0.710    87
 MGAI       22.30     1.0   P
 MTAI       24.00     1.0   P
 MTAI       44.00     1.0   S
 IHMI       24.50     1.0   P
 IHMI       45.60     1.0   S
 PSSI       29.00     1.0   P
 JHMI       31.40     1.0   P
 JHMI       56.40     1.0   S
 WHMI       35.00     1.0   P
 TNTI       35.40     1.0   P
 PMMI       42.90     1.0   P
 WBMI       43.70     1.0   P
 WBMI       76.90     1.0   S
 TMSI       43.30     1.0   P
 LBMI       55.20     1.0   P
 PBCI       60.40     1.0   P
# 2022 12 01 19 05 31.10  -2.2300  128.2200 122.00  3.67 0.00 0.00 1.070    88
 MSAI       24.80     1.0   P
 NLAI       26.00     1.0   P
 NLAI       50.90     1.0   S
 LBMI       28.60     1.0   P
 SANI       32.80     0.0   P
 SANI       56.70     0.0   S
 BSMI       40.00     1.0   P
 BSMI       70.10     1.0   S
 PMMI       42.50     1.0   P
 TNTI       47.80     1.0   P
 WHMI       51.60     1.0   P
  SWI       51.90     1.0   P
  SWI       90.40     1.0   S
 TSPI       59.00     1.0   P
 TSPI      104.90     1.0   S
 FAKI       61.50     1.0   P
 FAKI      107.20     1.0   S
# 2022 12 01 14 13 17.80  -1.9900  127.9700 110.00  3.85 0.00 0.00 0.900    89
 KRAI       25.70     1.0   P
 LBMI       26.00     1.0   P
 LBMI       46.80     1.0   S
 NLAI       27.30     1.0   P
 NLAI       47.30     1.0   S
 MSAI       28.80     1.0   P
 MSAI       50.90     1.0   S
 TAMI       30.40     1.0   P
 TAMI       53.80     1.0   S
 SANI       31.40     1.0   P
 SANI       57.30     1.0   S
 BSMI       42.90     1.0   P
 BSMI       75.10     1.0   S
 TNTI       44.50     1.0   P
 TNTI       78.20     1.0   S
  SWI       52.70     1.0   P
  SWI       92.30     1.0   S
TBMCM       64.70     1.0   P
TBMCM      113.40     1.0   S
 PBCI       67.80     1.0   P
 PBCI      119.00     1.0   S
# 2022 12 01 12 26 34.90   0.4700  128.3400   8.00  3.36 0.00 0.00 0.450    90
 WBMI       10.90     1.0   P
 WBMI       16.80     1.0   S
 WHMI       12.80     1.0   P
 WHMI       21.70     1.0   S
 PMMI       18.00     1.0   P
 PMMI       31.50     1.0   S
 TNTI       19.20     1.0   P
 TNTI       33.40     1.0   S
 JHMI       20.50     1.0   P
 JHMI       34.80     1.0   S
 IHMI       24.20     1.0   P
 IHMI       42.10     1.0   S
 LBMI       25.30     1.0   P
 LBMI       43.50     1.0   S
 MTAI       30.30     1.0   P
 MTAI       52.40     1.0   S
 OBMI       33.60     1.0   P
 OBMI       57.70     1.0   S
# 2022 11 30 19 40 51.90   3.2400  128.1300  10.00  4.21 0.00 0.00 0.570    91
 MTAI       19.90     1.0   P
 MTAI       33.40     1.0   S
 MGAI       28.40     1.0   P
 MGAI       50.00     1.0   S
 IHMI       30.60     1.0   P
 WHMI       35.70     1.0   P
 JHMI       37.80     1.0   P
 TNTI       42.90     1.0   P
 WBMI       46.50     1.0   P
 PMMI       46.90     1.0   P
 TMSI       57.80     1.0   P
  MNI       57.80     1.0   P
TBMCM       66.90     1.0   P
 PBCI       74.70     1.0   P
