# 2022 12 29 18 33 28.50   1.3900  126.5600   4.00  3.02 0.00 0.00 0.560     1
 JHMI       19.00     1.0   P
 JHMI       32.40     1.0   S
 TNTI       19.20     1.0   P
 TNTI       33.10     1.0   S
 TMSI       29.30     1.0   P
 TMSI       50.50     1.0   S
 WBMI       30.50     1.0   P
 WBMI       52.00     1.0   S
  MNI       30.70     1.0   P
  MNI       54.20     1.0   S
 PSSI       31.30     1.0   P
 PSSI       54.70     1.0   S
 MTAI       32.90     1.0   P
 MTAI       57.70     1.0   S
 GHMI       37.20     1.0   P
 GHMI       64.60     1.0   S
 LBMI       37.10     1.0   P
 LBMI       67.70     1.0   S
 PBCI       77.40     1.0   S
# 2022 12 29 16 52 36.30   2.1300  127.1200  98.00  4.59 0.00 0.00 0.740     2
 JHMI       21.60     1.0   P
 JHMI       38.70     1.0   S
 MTAI       22.00     1.0   P
 MTAI       39.00     1.0   S
 TNTI       24.80     1.0   P
 TNTI       43.70     1.0   S
 PSSI       30.20     1.0   P
 PSSI       52.80     1.0   S
 MGAI       31.20     1.0   P
 MGAI       55.70     1.0   S
 WBMI       32.00     1.0   P
 WBMI       56.50     1.0   S
 TMSI       37.30     1.0   P
 TMSI       65.90     1.0   S
  MNI       38.00     1.0   P
  MNI       67.00     1.0   S
 GHMI       40.00     1.0   P
 GHMI       71.40     1.0   S
 LBMI       42.60     1.0   P
 LBMI       76.40     1.0   S
TBMCM       44.10     1.0   P
TBMCM       78.60     1.0   S
 KMSI       52.80     1.0   P
 PBCI       52.60     1.0   P
 PBCI       92.70     1.0   S
 SANI       61.00     1.0   P
 TGCM       64.50     1.0   P
 TGCM      114.40     1.0   S
 KGCM       67.10     1.0   P
 KGCM      119.70     1.0   S
 SMSI       71.00     1.0   P
  SWI       73.70     1.0   P
 NLAI       76.20     1.0   P
 NLAI      133.40     0.0   S
 LUWI       79.00     1.0   P
 KRAI       81.40     1.0   P
 KRAI      143.20     1.0   S
 MSAI       83.90     1.0   P
 TAMI       83.80     1.0   P
 APSI       90.10     1.0   P
 APSI      159.00     1.0   S
 FAKI      102.50     1.0   P
 FAKI      182.60     1.0   S
LKUCM      102.60     1.0   P
 MPSI      106.80     1.0   P
 MPSI      190.50     1.0   S
  PCI      112.30     1.0   P
# 2022 12 29 13 51 55.30   0.2000  127.0600 121.00  4.08 0.00 0.00 0.750     3
 PMMI       18.70     1.0   P
 PMMI       33.40     1.0   S
 TNTI       21.40     1.0   P
 TNTI       34.70     1.0   S
 WBMI       20.60     1.0   P
 WBMI       37.70     1.0   S
 LBMI       22.60     1.0   P
 LBMI       39.50     1.0   S
 JHMI       22.00     1.0   P
 JHMI       39.50     1.0   S
 GHMI       22.30     1.0   P
 GHMI       39.60     1.0   S
 WHMI       26.30     1.0   P
 WHMI       46.60     1.0   S
 IHMI       26.10     1.0   P
 IHMI       46.60     1.0   S
 MTAI       37.60     1.0   P
 MTAI       66.50     1.0   S
 TMSI       38.80     1.0   P
 TMSI       68.90     1.0   S
 SANI       39.30     1.0   P
 SANI       68.20     1.0   S
TBMCM       40.10     1.0   P
TBMCM       71.60     1.0   S
  MNI       41.10     1.0   P
  MNI       72.60     1.0   S
 PSSI       46.30     1.0   P
 PSSI       81.60     1.0   S
 PBCI       46.60     1.0   P
 PBCI       82.00     1.0   S
 KMSI       48.50     1.0   P
 KMSI       86.00     1.0   S
 NLAI       52.20     1.0   P
 NLAI       91.20     1.0   S
 KRAI       57.60     1.0   P
 SMSI       69.70     1.0   P
# 2022 12 28 23 07 37.90  -0.6000  127.5200  10.00  3.93 0.00 0.00 1.810     4
 LBMI    86399.30     1.0   P
 GHMI        6.60     1.0   P
 OBMI       11.70     1.0   P
 TNTI       23.60     1.0   P
 SANI       35.30     1.0   P
 NLAI       42.70     1.0   P
 KRAI       47.00     1.0   P
 MTAI       48.30     1.0   P
 MTAI       88.20     0.0   S
 MSAI       48.80     1.0   P
 MSAI       89.70     1.0   S
 TAMI       51.30     1.0   P
 TAMI       88.30     1.0   S
 TMSI       51.10     1.0   P
 TMSI       91.50     1.0   S
TBMCM       50.80     1.0   P
TBMCM       87.90     1.0   S
 PBCI       58.50     1.0   P
 PBCI       97.80     1.0   S
 KMSI       58.70     1.0   P
 KMSI       99.90     1.0   S
  SWI       56.80     1.0   P
  SWI       94.30     0.0   S
 BSMI       58.80     1.0   P
 BSMI      104.40     1.0   S
 PSSI       60.90     1.0   P
 PSSI      109.50     1.0   S
 TGCM       70.50     1.0   P
 TGCM      121.40     1.0   S
 LUWI       73.10     1.0   P
 LUWI      130.30     1.0   S
 SMSI       82.00     1.0   P
 SMSI      143.00     1.0   S
# 2022 12 28 19 07 42.40   1.8800  127.0000  99.00  3.72 0.00 0.00 0.560     5
 JHMI       20.10     1.0   P
 JHMI       35.30     1.0   S
 TNTI       22.80     1.0   P
 TNTI       39.50     1.0   S
 MTAI       23.70     1.0   P
 MTAI       42.50     1.0   S
 WBMI       29.60     1.0   P
 WBMI       52.90     1.0   S
 PSSI       30.00     1.0   P
 PSSI       53.30     1.0   S
 MGAI       33.60     1.0   P
 MGAI       61.10     1.0   S
 TMSI       35.00     1.0   P
 TMSI       61.50     1.0   S
  MNI       35.80     1.0   P
  MNI       62.80     1.0   S
 GHMI       37.40     1.0   P
 GHMI       66.70     1.0   S
 LBMI       40.30     1.0   P
TBMCM       41.20     1.0   P
TBMCM       73.00     1.0   S
 PBCI       50.10     1.0   P
 PBCI       88.40     1.0   S
 SANI       57.70     1.0   P
 TGCM       61.60     1.0   P
 KGCM       63.60     1.0   P
 SMSI       69.10     1.0   P
 NLAI       73.30     1.0   P
 LUWI       74.00     1.0   P
 KRAI       78.80     1.0   P
 TAMI       81.60     1.0   P
 APSI       87.30     1.0   P
# 2022 12 28 16 51 51.80  -0.0100  126.7300  10.00  3.03 0.00 0.00 1.030     6
 LBMI       19.00     1.0   P
 LBMI       32.30     1.0   S
 TNTI       19.20     1.0   P
 TNTI       32.20     1.0   S
 WBMI       22.30     1.0   P
 WBMI       37.80     1.0   S
 GHMI       22.30     1.0   P
 GHMI       37.70     1.0   S
 JHMI       23.90     1.0   P
 JHMI       40.80     1.0   S
TBMCM       37.20     1.0   P
TBMCM       63.70     1.0   S
 MTAI       45.60     1.0   P
 MTAI       78.00     1.0   S
 PBCI       43.50     1.0   P
 NLAI       51.20     1.0   P
 TGCM       58.30     1.0   P
 TGCM      102.50     1.0   S
# 2022 12 26 21 30 20.50  -1.0200  127.6200  19.00  2.07 0.00 0.00 0.960     7
 OBMI        7.00     1.0   P
 OBMI       15.10     1.0   S
 LBMI        8.80     1.0   P
 LBMI       16.60     1.0   S
 GHMI       16.10     1.0   P
 GHMI       23.60     1.0   S
 WBMI       23.70     1.0   P
 WBMI       42.60     1.0   S
# 2022 12 26 21 06 40.50   1.2000  127.4200 133.00  3.79 0.00 0.00 0.930     8
 GHMI       29.50     1.0   P
 LBMI       32.10     1.0   P
 LBMI       57.80     1.0   S
 TMSI       40.90     1.0   P
 TMSI       72.60     1.0   S
 PSSI       41.00     1.0   P
 PSSI       72.50     1.0   S
TBMCM       45.10     1.0   P
TBMCM       78.30     1.0   S
 PBCI       52.40     1.0   P
 PBCI       93.00     1.0   S
 KMSI       53.20     1.0   P
 KMSI       96.30     1.0   S
 TGCM       64.90     1.0   P
 TGCM      118.00     1.0   S
# 2022 12 25 13 17  2.70   3.0600  128.9000  10.00  4.33 0.00 0.00 1.700     9
 MTAI       15.90     1.0   P
 MTAI       35.20     1.0   S
 WHMI       37.80     1.0   P
 WHMI       63.40     1.0   S
 MGAI       41.90     1.0   P
 MGAI       69.90     1.0   S
 JHMI       37.20     1.0   P
 JHMI       70.20     1.0   S
 TNTI       44.80     1.0   P
 TNTI       79.60     1.0   S
 WBMI       42.50     1.0   P
 WBMI       82.80     1.0   S
 PSSI       55.60     1.0   P
 PSSI       96.60     1.0   S
 GHMI       56.90     1.0   P
 GHMI       98.10     1.0   S
 TMSI       66.30     1.0   P
 TMSI      118.30     1.0   S
 PBCI       82.30     1.0   P
 PBCI      146.30     1.0   S
# 2022 12 25 12 34 20.90   1.1000  127.7100  10.00  2.59 0.00 0.00 0.430    10
 JHMI        5.70     1.0   P
 JHMI       10.10     1.0   S
 WHMI        9.20     1.0   P
 WHMI       14.90     1.0   S
 IHMI        9.10     1.0   P
 IHMI       15.30     1.0   S
 TNTI       10.00     1.0   P
 TNTI       17.20     1.0   S
 WBMI       15.40     1.0   P
 WBMI       26.60     1.0   S
 PMMI       15.10     1.0   P
 PMMI       26.20     1.0   S
 MTAI       22.90     1.0   P
 MTAI       40.30     1.0   S
# 2022 12 24 17 25 50.80   0.3000  124.8700  23.00  3.42 0.00 0.00 0.900    11
TBMCM       11.30     1.0   P
TBMCM       20.10     1.0   S
 PBCI       15.90     1.0   P
 PBCI       26.90     1.0   S
 KMSI       17.50     1.0   P
 KMSI       30.60     1.0   S
 TMSI       18.60     1.0   P
 TMSI       31.80     1.0   S
  MNI       19.90     1.0   P
 TGCM       29.50     1.0   P
 TGCM       51.80     1.0   S
 PSSI       38.30     1.0   P
 LUWI       41.50     0.0   P
 SANI       39.10     1.0   P
 SMSI       39.60     1.0   P
 SMSI       74.10     1.0   S
 LBMI       43.20     1.0   P
 WHMI       51.70     1.0   P
 APSI       54.40     1.0   P
 APSI       96.70     0.0   S
 MTAI       58.20     1.0   P
 KRAI       75.20     1.0   P
# 2022 12 24 15 27 42.00   1.3800  128.1800  71.00  3.92 0.00 0.00 0.860    12
 WHMI       12.10     1.0   P
 WHMI       22.20     1.0   S
 IHMI       14.70     1.0   P
 JHMI       15.90     1.0   P
 JHMI       29.00     1.0   S
 MTAI       16.40     1.0   P
 MTAI       29.70     1.0   S
 TNTI       18.60     1.0   P
 TNTI       33.30     1.0   S
 WBMI       19.90     1.0   P
 WBMI       36.00     1.0   S
 PMMI       22.20     1.0   P
 PMMI       40.10     1.0   S
 GHMI       28.80     1.0   P
 GHMI       50.90     1.0   S
 LBMI       34.60     1.0   P
 MGAI       46.00     1.0   P
 MGAI       83.20     1.0   S
 TMSI       48.80     1.0   P
 TMSI       87.50     1.0   S
TBMCM       53.70     1.0   P
TBMCM       95.00     1.0   S
  SWI       56.60     1.0   P
  SWI       98.80     1.0   S
 SANI       58.80     1.0   P
 SANI      105.10     1.0   S
 PBCI       62.20     1.0   P
 PBCI      110.40     1.0   S
 KMSI       62.90     1.0   P
 KMSI      112.50     1.0   S
 NLAI       69.60     1.0   P
 TGCM       75.60     1.0   P
 FAKI       85.00     1.0   P
 LUWI       84.60     1.0   P
 APSI       97.70     1.0   P
# 2022 12 24 10 34 33.20   1.8200  127.3900 102.00  3.57 0.00 0.00 0.460    13
 IHMI       15.90     1.0   P
 IHMI       28.10     1.0   S
 JHMI       18.90     1.0   P
 JHMI       33.90     1.0   S
 MTAI       20.70     1.0   P
 MTAI       36.40     1.0   S
 TNTI       21.40     1.0   P
 TNTI       37.70     1.0   S
 WHMI       21.40     1.0   P
 WHMI       37.10     1.0   S
 PMMI       26.50     1.0   P
 PMMI       46.60     1.0   S
 WBMI       27.20     1.0   P
 PSSI       34.90     1.0   P
 PSSI       62.70     1.0   S
 MGAI       35.90     1.0   P
 MGAI       64.70     1.0   S
 LBMI       38.60     1.0   P
 LBMI       68.00     1.0   S
 TMSI       39.60     1.0   P
 TMSI       69.90     1.0   S
  MNI       40.40     1.0   P
  MNI       71.70     1.0   S
TBMCM       45.30     1.0   P
 PBCI       53.60     1.0   P
 SANI       59.90     1.0   P
 TGCM       66.60     1.0   P
# 2022 12 24 03 03  4.90   1.5900  127.0500 110.00  2.91 0.00 0.00 0.560    14
 IHMI       17.00     1.0   P
 JHMI       18.90     1.0   P
 JHMI       34.00     1.0   S
 WHMI       23.90     1.0   P
 PMMI       24.80     1.0   P
 PMMI       43.60     1.0   S
 MTAI       25.60     1.0   P
 MTAI       45.30     1.0   S
 PSSI       33.20     1.0   P
 GHMI       60.20     1.0   S
TBMCM       72.70     1.0   S
# 2022 12 21 11 08 41.20   0.4300  127.3700  13.00  2.52 0.00 0.00 1.170    15
 PMMI        1.90     1.0   P
 PMMI        6.50     1.0   S
 TNTI        9.60     1.0   P
 TNTI       12.90     1.0   S
 WBMI       10.70     1.0   P
 WBMI       18.60     1.0   S
 JHMI       15.50     1.0   P
 JHMI       22.30     1.0   S
 GHMI       18.40     1.0   P
 GHMI       30.00     1.0   S
 WHMI       21.00     1.0   P
 WHMI       32.90     1.0   S
 LBMI        6.30     0.0   P
 IHMI       19.20     1.0   P
 IHMI       34.10     1.0   S
# 2022 12 21 09 26 44.00   2.5500  128.2800 191.00  3.84 0.00 0.00 0.850    16
 MTAI       25.00     1.0   P
 MTAI       45.80     1.0   S
 IHMI       31.70     1.0   P
 WHMI       33.30     1.0   P
 WHMI       59.90     1.0   S
 JHMI       35.60     1.0   P
 MGAI       39.70     1.0   P
 MGAI       71.60     1.0   S
 WBMI       73.50     1.0   S
 PSSI       48.60     1.0   P
 PSSI       85.20     1.0   S
 TMSI       56.90     1.0   P
 TMSI      101.20     1.0   S
  MNI      101.90     1.0   S
TBMCM       63.80     1.0   P
TBMCM      111.60     1.0   S
 PBCI       71.20     1.0   P
 PBCI      126.70     1.0   S
 SANI       74.80     1.0   P
 TSPI       80.40     1.0   P
# 2022 12 19 16 07 10.90   0.3700  125.2700  11.00  2.71 0.00 0.00 0.580    17
TBMCM       14.80     1.0   P
TBMCM       26.30     1.0   S
 PBCI       22.00     1.0   P
 PBCI       38.90     1.0   S
 KMSI       23.90     1.0   P
 KMSI       41.30     1.0   S
 TGCM       35.70     1.0   P
 TGCM       64.50     1.0   S
 PSSI       39.60     1.0   P
 SANI       41.50     1.0   P
 IHMI       40.30     1.0   P
# 2022 12 19 12 36 22.70   0.3200  125.5000  11.00  3.31 0.00 0.00 0.620    18
TBMCM       18.80     1.0   P
TBMCM       31.00     0.0   S
 TMSI       20.80     1.0   P
 TMSI       36.10     1.0   S
  MNI       24.20     1.0   P
  MNI       41.00     1.0   S
 PBCI       25.60     1.0   P
 PBCI       43.50     0.0   S
 KMSI       28.00     1.0   P
 KMSI       46.60     1.0   S
 PMMI       33.60     1.0   P
 PMMI       57.60     1.0   S
 TNTI       32.30     1.0   P
 JHMI       35.10     1.0   P
 JHMI       63.40     1.0   S
 LBMI       36.90     1.0   P
 LBMI       62.90     0.0   S
 IHMI       38.50     1.0   P
 IHMI       67.90     1.0   S
 WBMI       39.50     1.0   P
 WBMI       67.60     1.0   S
 PSSI       39.40     1.0   P
 SANI       38.40     1.0   P
 TGCM       41.60     0.0   P
 TGCM       70.80     1.0   S
 SMSI       50.90     1.0   P
 SMSI       89.90     1.0   S
# 2022 12 19 09 30  1.80   1.1100  126.9000  14.00  3.54 0.00 0.00 0.830    19
 TNTI       11.90     1.0   P
 TNTI       20.20     1.0   S
 JHMI       12.20     1.0   P
 JHMI       20.60     1.0   S
 IHMI       15.00     1.0   P
 IHMI       25.40     1.0   S
 PMMI       16.80     1.0   P
 PMMI       29.00     1.0   S
 WHMI       22.10     1.0   P
 WHMI       39.20     1.0   S
 WBMI       23.10     1.0   P
 WBMI       39.90     1.0   S
 MTAI       30.20     1.0   P
 LBMI       31.00     1.0   P
 LBMI       54.00     1.0   S
 TMSI       32.60     1.0   P
 TMSI       56.60     1.0   S
  MNI       35.40     1.0   P
 PSSI       62.20     1.0   S
TBMCM       37.90     1.0   P
TBMCM       67.30     1.0   S
 MGAI       46.60     1.0   P
 PBCI       47.00     1.0   P
 PBCI       83.40     1.0   S
 KMSI       47.90     1.0   P
 TGCM       60.60     1.0   P
 LUWI       72.00     0.0   P
# 2022 12 19 03 57 26.60   1.1500  124.6800 161.00  3.23 0.00 0.00 0.650    20
 TMSI       21.60     1.0   P
TBMCM       23.20     1.0   P
 KMSI       26.40     1.0   P
 PBCI       26.40     1.0   P
 TNTI       44.60     1.0   P
 TNTI       77.90     1.0   S
 JHMI       45.60     1.0   P
 JHMI       80.40     1.0   S
 MRSI       45.00     1.0   P
 PMMI       46.30     1.0   P
 PMMI       82.90     1.0   S
 LBMI       51.60     1.0   P
 LBMI       93.30     1.0   S
 SANI       53.00     1.0   P
 SANI       94.80     1.0   S
# 2022 12 19 02 46  0.90   0.6500  125.3700  10.00  3.02 0.00 0.00 0.840    21
 TMSI       16.50     1.0   P
 TMSI       26.30     1.0   S
TBMCM       14.90     1.0   P
TBMCM       27.50     1.0   S
  MNI       19.10     1.0   P
  MNI       30.00     1.0   S
 PBCI       23.50     1.0   P
 PBCI       42.50     1.0   S
 KMSI       24.80     1.0   P
 KMSI       44.10     1.0   S
# 2022 12 18 13 02 31.30   2.5900  127.6300 127.00  3.91 0.00 0.00 0.850    22
 MTAI       21.10     1.0   P
 MTAI       36.90     1.0   S
 IHMI       24.30     1.0   P
 IHMI       42.90     1.0   S
 MGAI       30.50     1.0   P
 MGAI       54.10     1.0   S
 PSSI       33.30     0.0   P
 TMSI       47.40     1.0   P
 TMSI       83.10     1.0   S
TBMCM       55.10     1.0   P
TBMCM       95.20     1.0   S
 PBCI       63.30     1.0   P
 PBCI      110.60     1.0   S
 SANI       70.20     1.0   P
 NLAI       84.10     1.0   P
# 2022 12 18 00 25 14.90  -0.5300  126.7700  20.00  4.03 0.00 0.00 0.530    23
 LBMI       14.60     1.0   P
 LBMI       24.70     1.0   S
 PMMI       20.50     1.0   P
 PMMI       35.20     1.0   S
 OBMI       21.70     1.0   P
 OBMI       37.30     1.0   S
 WBMI       24.70     1.0   P
 WBMI       42.90     1.0   S
 TNTI       25.10     1.0   P
 TNTI       43.10     1.0   S
 SANI       28.90     1.0   P
 SANI       50.60     1.0   S
 JHMI       30.10     1.0   P
 JHMI       51.30     1.0   S
 WHMI       34.50     1.0   P
 WHMI       60.10     1.0   S
 IHMI       35.70     1.0   P
 IHMI       61.70     1.0   S
TBMCM       38.80     1.0   P
 TMSI       40.90     1.0   P
 TMSI       72.70     1.0   S
 NLAI       41.40     1.0   P
  MNI       43.20     1.0   P
 PBCI       43.90     1.0   P
 MTAI       48.40     1.0   P
 TAMI       52.80     1.0   P
# 2022 12 17 10 07  3.90   2.2700  129.3100  10.00  4.81 0.00 0.00 0.610    24
 MTAI       18.20     1.0   P
 WHMI       28.40     1.0   P
 IHMI       32.90     1.0   P
 JHMI       36.40     1.0   P
 WBMI       39.10     1.0   P
 TNTI       39.70     1.0   P
 PMMI       43.20     1.0   P
 MGAI       50.00     1.0   P
 LBMI       52.50     1.0   P
  SWI       55.90     1.0   P
 PSSI       60.80     1.0   P
 TMSI       68.90     1.0   P
  MNI       69.00     1.0   P
 TSPI       70.20     1.0   P
TBMCM       75.10     1.0   P
 MSAI       84.20     1.0   P
 KMSI       83.60     1.0   P
 PBCI       83.60     1.0   P
 KRAI       84.90     1.0   P
 SMSI      103.20     1.0   P
 LUWI      107.20     1.0   P
# 2022 12 16 17 32 50.30   3.3000  125.9300 160.00  3.89 0.00 0.00 0.890    25
 PSSI       22.20     1.0   P
 MGAI       26.80     1.0   P
 MGAI       46.50     1.0   S
  MNI       37.20     1.0   P
 TMSI       38.10     1.0   P
 TMSI       69.00     1.0   S
 IHMI       40.00     1.0   P
 MTAI       42.90     1.0   P
 MTAI       76.40     1.0   S
 JHMI       43.90     1.0   P
 JHMI       78.50     1.0   S
 TNTI       46.60     1.0   P
 TNTI       82.90     1.0   S
TBMCM       46.80     1.0   P
TBMCM       82.60     1.0   S
 WHMI       50.20     1.0   P
 WHMI       88.10     1.0   S
 PMMI       51.50     1.0   P
 PMMI       91.30     1.0   S
 PBCI       55.00     1.0   P
 PBCI       97.90     1.0   S
 WBMI       55.10     1.0   P
 LBMI       63.70     1.0   P
 LBMI      113.00     1.0   S
 SANI       75.80     1.0   P
# 2022 12 16 17 00 53.00   2.1800  129.2100  10.00  4.34 0.00 0.00 0.850    26
 MTAI       16.40     1.0   P
 MTAI       30.10     1.0   S
 WHMI       26.50     1.0   P
 WHMI       48.30     1.0   S
 JHMI       34.70     1.0   P
 JHMI       61.70     1.0   S
 TNTI       37.90     1.0   P
 PMMI       41.40     1.0   P
 PMMI       73.90     1.0   S
 MGAI       48.50     1.0   P
 MGAI       87.80     1.0   S
 LBMI       51.60     1.0   P
 LBMI       89.90     1.0   S
 PSSI       59.40     1.0   P
 PSSI      105.60     1.0   S
 TMSI       67.20     1.0   P
 TMSI      119.00     1.0   S
TBMCM       73.20     1.0   P
TBMCM      130.60     1.0   S
 SANI       78.20     1.0   P
 SANI      141.70     1.0   S
 KMSI       83.20     1.0   P
 PBCI       82.40     1.0   P
 PBCI      143.70     1.0   S
 TAMI       87.80     1.0   P
