# 2022 12 28 23 07 37.50  -0.6000  127.4300  10.00  3.69 0.00 0.00 1.290     1
 LBMI        0.60     1.0   P
 OBMI       12.50     1.0   P
 OBMI       25.10     1.0   S
 TNTI       24.40     1.0   P
 SANI       34.00     1.0   P
 SANI       60.20     1.0   S
NSBMM       41.80     1.0   P
NSBMM       76.40     1.0   S
 NLAI       43.30     1.0   P
 NLAI       75.60     1.0   S
 KRAI       47.10     1.0   P
 MSAI       50.40     1.0   P
 TAMI       50.60     1.0   P
TMTMM       53.20     1.0   P
  SWI       60.20     1.0   P
# 2022 12 28 12 34 18.30   1.5600  126.6400  22.00  3.19 0.00 0.00 0.560     2
 JHMI       18.10     1.0   P
 JHMI       31.00     1.0   S
 TNTI       19.00     1.0   P
 TNTI       32.70     1.0   S
 PMMI       43.10     1.0   S
 WHMI       26.40     1.0   P
 PSSI       28.60     1.0   P
 PSSI       49.70     1.0   S
 WBMI       29.40     1.0   P
 WBMI       51.30     1.0   S
 TMSI       50.10     1.0   S
 MTAI       29.10     1.0   P
TBMCM       36.10     1.0   P
 PBCI       44.50     1.0   P
# 2022 12 26 21 06 40.50   1.2000  127.4200 133.00  3.79 0.00 0.00 0.930     3
 GHMI       29.50     1.0   P
 LBMI       32.10     1.0   P
 LBMI       57.80     1.0   S
 TMSI       40.90     1.0   P
 TMSI       72.60     1.0   S
 PSSI       41.00     1.0   P
 PSSI       72.50     1.0   S
TBMCM       45.10     1.0   P
TBMCM       78.30     1.0   S
 PBCI       52.40     1.0   P
 PBCI       93.00     1.0   S
 KMSI       53.20     1.0   P
 KMSI       96.30     1.0   S
 TGCM       64.90     1.0   P
 TGCM      118.00     1.0   S
# 2022 12 28 16 51 51.80  -0.0100  126.7300  10.00  3.03 0.00 0.00 1.030     4
 LBMI       19.00     1.0   P
 LBMI       32.30     1.0   S
 TNTI       19.20     1.0   P
 TNTI       32.20     1.0   S
 WBMI       22.30     1.0   P
 WBMI       37.80     1.0   S
 GHMI       22.30     1.0   P
 GHMI       37.70     1.0   S
 JHMI       23.90     1.0   P
 JHMI       40.80     1.0   S
TBMCM       37.20     1.0   P
TBMCM       63.70     1.0   S
 MTAI       45.60     1.0   P
 MTAI       78.00     1.0   S
 PBCI       43.50     1.0   P
 NLAI       51.20     1.0   P
 TGCM       58.30     1.0   P
 TGCM      102.50     1.0   S
# 2022 12 28 19 07 42.40   1.8800  127.0000  99.00  3.72 0.00 0.00 0.560     5
 JHMI       20.10     1.0   P
 JHMI       35.30     1.0   S
 TNTI       22.80     1.0   P
 TNTI       39.50     1.0   S
 MTAI       23.70     1.0   P
 MTAI       42.50     1.0   S
 WBMI       29.60     1.0   P
 WBMI       52.90     1.0   S
 PSSI       30.00     1.0   P
 PSSI       53.30     1.0   S
 MGAI       33.60     1.0   P
 MGAI       61.10     1.0   S
 TMSI       35.00     1.0   P
 TMSI       61.50     1.0   S
  MNI       35.80     1.0   P
  MNI       62.80     1.0   S
 GHMI       37.40     1.0   P
 GHMI       66.70     1.0   S
 LBMI       40.30     1.0   P
TBMCM       41.20     1.0   P
TBMCM       73.00     1.0   S
 PBCI       50.10     1.0   P
 PBCI       88.40     1.0   S
 SANI       57.70     1.0   P
 TGCM       61.60     1.0   P
 KGCM       63.60     1.0   P
 SMSI       69.10     1.0   P
 NLAI       73.30     1.0   P
 LUWI       74.00     1.0   P
 KRAI       78.80     1.0   P
 TAMI       81.60     1.0   P
 APSI       87.30     1.0   P
