# 2022 12 16 17 32 50.30   3.3000  125.9300 160.00  3.89 0.00 0.00 0.890    23
 PSSI       22.20     1.0   P
 MGAI       26.80     1.0   P
 MGAI       46.50     1.0   S
  MNI       37.20     1.0   P
 TMSI       38.10     1.0   P
 TMSI       69.00     1.0   S
 IHMI       40.00     1.0   P
 MTAI       42.90     1.0   P
 MTAI       76.40     1.0   S
 JHMI       43.90     1.0   P
 JHMI       78.50     1.0   S
 TNTI       46.60     1.0   P
 TNTI       82.90     1.0   S
TBMCM       46.80     1.0   P
TBMCM       82.60     1.0   S
 WHMI       50.20     1.0   P
 WHMI       88.10     1.0   S
 PMMI       51.50     1.0   P
 PMMI       91.30     1.0   S
 PBCI       55.00     1.0   P
 PBCI       97.90     1.0   S
 WBMI       55.10     1.0   P
 LBMI       63.70     1.0   P
 LBMI      113.00     1.0   S
 SANI       75.80     1.0   P
# 2022 12 18 13 02 31.30   2.5900  127.6300 127.00  3.91 0.00 0.00 0.850    24
 MTAI       21.10     1.0   P
 MTAI       36.90     1.0   S
 IHMI       24.30     1.0   P
 IHMI       42.90     1.0   S
 MGAI       30.50     1.0   P
 MGAI       54.10     1.0   S
 PSSI       33.30     0.0   P
 TMSI       47.40     1.0   P
 TMSI       83.10     1.0   S
TBMCM       55.10     1.0   P
TBMCM       95.20     1.0   S
 PBCI       63.30     1.0   P
 PBCI      110.60     1.0   S
 SANI       70.20     1.0   P
 NLAI       84.10     1.0   P
# 2022 12 19 02 46  0.90   0.6500  125.3700  10.00  3.02 0.00 0.00 0.840    25
 TMSI       16.50     1.0   P
 TMSI       26.30     1.0   S
TBMCM       14.90     1.0   P
TBMCM       27.50     1.0   S
  MNI       19.10     1.0   P
  MNI       30.00     1.0   S
 PBCI       23.50     1.0   P
 PBCI       42.50     1.0   S
 KMSI       24.80     1.0   P
 KMSI       44.10     1.0   S
# 2022 12 19 16 07 10.90   0.3700  125.2700  11.00  2.71 0.00 0.00 0.580    26
TBMCM       14.80     1.0   P
TBMCM       26.30     1.0   S
 PBCI       22.00     1.0   P
 PBCI       38.90     1.0   S
 KMSI       23.90     1.0   P
 KMSI       41.30     1.0   S
 TGCM       35.70     1.0   P
 TGCM       64.50     1.0   S
 PSSI       39.60     1.0   P
 SANI       41.50     1.0   P
 IHMI       40.30     1.0   P
# 2022 12 21 11 08 41.20   0.4300  127.3700  13.00  2.52 0.00 0.00 1.170    27
 PMMI        1.90     1.0   P
 PMMI        6.50     1.0   S
 TNTI        9.60     1.0   P
 TNTI       12.90     1.0   S
 WBMI       10.70     1.0   P
 WBMI       18.60     1.0   S
 JHMI       15.50     1.0   P
 JHMI       22.30     1.0   S
 GHMI       18.40     1.0   P
 GHMI       30.00     1.0   S
 WHMI       21.00     1.0   P
 WHMI       32.90     1.0   S
 LBMI        6.30     0.0   P
 IHMI       19.20     1.0   P
 IHMI       34.10     1.0   S
# 2022 12 24 03 03  4.90   1.5900  127.0500 110.00  2.91 0.00 0.00 0.560    28
 IHMI       17.00     1.0   P
 JHMI       18.90     1.0   P
 JHMI       34.00     1.0   S
 WHMI       23.90     1.0   P
 PMMI       24.80     1.0   P
 PMMI       43.60     1.0   S
 MTAI       25.60     1.0   P
 MTAI       45.30     1.0   S
 PSSI       33.20     1.0   P
 GHMI       60.20     1.0   S
TBMCM       72.70     1.0   S
# 2022 12 24 10 34 33.20   1.8200  127.3900 102.00  3.57 0.00 0.00 0.460    29
 IHMI       15.90     1.0   P
 IHMI       28.10     1.0   S
 JHMI       18.90     1.0   P
 JHMI       33.90     1.0   S
 MTAI       20.70     1.0   P
 MTAI       36.40     1.0   S
 TNTI       21.40     1.0   P
 TNTI       37.70     1.0   S
 WHMI       21.40     1.0   P
 WHMI       37.10     1.0   S
 PMMI       26.50     1.0   P
 PMMI       46.60     1.0   S
 WBMI       27.20     1.0   P
 PSSI       34.90     1.0   P
 PSSI       62.70     1.0   S
 MGAI       35.90     1.0   P
 MGAI       64.70     1.0   S
 LBMI       38.60     1.0   P
 LBMI       68.00     1.0   S
 TMSI       39.60     1.0   P
 TMSI       69.90     1.0   S
  MNI       40.40     1.0   P
  MNI       71.70     1.0   S
TBMCM       45.30     1.0   P
 PBCI       53.60     1.0   P
 SANI       59.90     1.0   P
 TGCM       66.60     1.0   P
# 2022 12 24 15 27 42.00   1.3800  128.1800  71.00  3.92 0.00 0.00 0.860    30
 WHMI       12.10     1.0   P
 WHMI       22.20     1.0   S
 IHMI       14.70     1.0   P
 JHMI       15.90     1.0   P
 JHMI       29.00     1.0   S
 MTAI       16.40     1.0   P
 MTAI       29.70     1.0   S
 TNTI       18.60     1.0   P
 TNTI       33.30     1.0   S
 WBMI       19.90     1.0   P
 WBMI       36.00     1.0   S
 PMMI       22.20     1.0   P
 PMMI       40.10     1.0   S
 GHMI       28.80     1.0   P
 GHMI       50.90     1.0   S
 LBMI       34.60     1.0   P
 MGAI       46.00     1.0   P
 MGAI       83.20     1.0   S
 TMSI       48.80     1.0   P
 TMSI       87.50     1.0   S
TBMCM       53.70     1.0   P
TBMCM       95.00     1.0   S
  SWI       56.60     1.0   P
  SWI       98.80     1.0   S
 SANI       58.80     1.0   P
 SANI      105.10     1.0   S
 PBCI       62.20     1.0   P
 PBCI      110.40     1.0   S
 KMSI       62.90     1.0   P
 KMSI      112.50     1.0   S
 NLAI       69.60     1.0   P
 TGCM       75.60     1.0   P
 FAKI       85.00     1.0   P
 LUWI       84.60     1.0   P
 APSI       97.70     1.0   P
# 2022 12 25 13 17  2.70   3.0600  128.9000  10.00  4.33 0.00 0.00 1.700    31
 MTAI       15.90     1.0   P
 MTAI       35.20     1.0   S
 WHMI       37.80     1.0   P
 WHMI       63.40     1.0   S
 MGAI       41.90     1.0   P
 MGAI       69.90     1.0   S
 JHMI       37.20     1.0   P
 JHMI       70.20     1.0   S
 TNTI       44.80     1.0   P
 TNTI       79.60     1.0   S
 WBMI       42.50     1.0   P
 WBMI       82.80     1.0   S
 PSSI       55.60     1.0   P
 PSSI       96.60     1.0   S
 GHMI       56.90     1.0   P
 GHMI       98.10     1.0   S
 TMSI       66.30     1.0   P
 TMSI      118.30     1.0   S
 PBCI       82.30     1.0   P
 PBCI      146.30     1.0   S
# 2022 12 26 21 06 40.50   1.2000  127.4200 133.00  3.79 0.00 0.00 0.930    32
 GHMI       29.50     1.0   P
 LBMI       32.10     1.0   P
 LBMI       57.80     1.0   S
 TMSI       40.90     1.0   P
 TMSI       72.60     1.0   S
 PSSI       41.00     1.0   P
 PSSI       72.50     1.0   S
TBMCM       45.10     1.0   P
TBMCM       78.30     1.0   S
 PBCI       52.40     1.0   P
 PBCI       93.00     1.0   S
 KMSI       53.20     1.0   P
 KMSI       96.30     1.0   S
 TGCM       64.90     1.0   P
 TGCM      118.00     1.0   S
# 2022 12 28 16 51 51.80  -0.0100  126.7300  10.00  3.03 0.00 0.00 1.030    33
 LBMI       19.00     1.0   P
 LBMI       32.30     1.0   S
 TNTI       19.20     1.0   P
 TNTI       32.20     1.0   S
 WBMI       22.30     1.0   P
 WBMI       37.80     1.0   S
 GHMI       22.30     1.0   P
 GHMI       37.70     1.0   S
 JHMI       23.90     1.0   P
 JHMI       40.80     1.0   S
TBMCM       37.20     1.0   P
TBMCM       63.70     1.0   S
 MTAI       45.60     1.0   P
 MTAI       78.00     1.0   S
 PBCI       43.50     1.0   P
 NLAI       51.20     1.0   P
 TGCM       58.30     1.0   P
 TGCM      102.50     1.0   S
# 2022 12 28 19 07 42.40   1.8800  127.0000  99.00  3.72 0.00 0.00 0.560    34
 JHMI       20.10     1.0   P
 JHMI       35.30     1.0   S
 TNTI       22.80     1.0   P
 TNTI       39.50     1.0   S
 MTAI       23.70     1.0   P
 MTAI       42.50     1.0   S
 WBMI       29.60     1.0   P
 WBMI       52.90     1.0   S
 PSSI       30.00     1.0   P
 PSSI       53.30     1.0   S
 MGAI       33.60     1.0   P
 MGAI       61.10     1.0   S
 TMSI       35.00     1.0   P
 TMSI       61.50     1.0   S
  MNI       35.80     1.0   P
  MNI       62.80     1.0   S
 GHMI       37.40     1.0   P
 GHMI       66.70     1.0   S
 LBMI       40.30     1.0   P
TBMCM       41.20     1.0   P
TBMCM       73.00     1.0   S
 PBCI       50.10     1.0   P
 PBCI       88.40     1.0   S
 SANI       57.70     1.0   P
 TGCM       61.60     1.0   P
 KGCM       63.60     1.0   P
 SMSI       69.10     1.0   P
 NLAI       73.30     1.0   P
 LUWI       74.00     1.0   P
 KRAI       78.80     1.0   P
 TAMI       81.60     1.0   P
 APSI       87.30     1.0   P
